SAUDISAT 1C             
1 27607U 02058C   23001.53078218  .00001462  00000+0  21864-3 0  9993
2 27607  64.5553  55.5938 0080280 256.9883 102.2248 14.76537942 77614
SAUDISAT 2              
1 28371U 04025F   23001.39431028  .00000528  00000+0  13393-3 0  9994
2 28371  98.4072 323.8287 0024992 214.0671 145.8925 14.54686902982067
SAUDISAT 3              
1 31118U 07012B   23001.60446590  .00000374  00000+0  71273-4 0  9991
2 31118  97.9947 309.1097 0013774 286.7850  73.1845 14.69452025842200
PISAT                   
1 41784U 16059B   23001.54813114  .00000905  00000+0  17976-3 0  9994
2 41784  97.8922  41.9507 0030242 262.6165  97.1602 14.64179017334676
FLYING LAPTOP           
1 42831U 17042G   23001.57773084  .00001776  00000+0  17882-3 0  9998
2 42831  97.3997 209.3195 0015068  66.5023 293.7824 14.92260240297637
SALSAT                  
1 46495U 20068K   23001.43045469  .00003996  00000+0  28082-3 0  9994
2 46495  97.7521 308.1360 0015261 333.0455  26.9977 15.05612431123969
